STARLINK-37028          
1 68270U 26055J   26084.88327167 -.00224145  29719-4 -36548-3 0  9994
2 68270  53.1598 256.8055 0000715 217.4703 142.6279 16.02355378  2232
STARLINK-37029          
1 68271U 26055K   26084.88361646 -.00200487  26025-4 -32912-3 0  9996
2 68271  53.1599 256.8083 0000279  10.0209 350.0828 16.02208294  2237
STARLINK-36974          
1 68272U 26055L   26084.88285401 -.00246675  33619-4 -39890-3 0  9999
2 68272  53.1599 256.8030 0000724  43.4418 316.6671 16.02521296  2231
STARLINK-37019          
1 68273U 26055M   26084.88255530 -.00246762  33676-4 -39581-3 0  9997
2 68273  53.1597 256.8006 0000897 218.2843 141.8125 16.02657994  2235
STARLINK-37129          
1 68274U 26055N   26084.88222507 -.00261283  36394-4 -41645-3 0  9995
2 68274  53.1598 256.7987 0000672  30.6822 329.4249 16.02780007  2231
STARLINK-37123          
1 68275U 26055P   26084.88194025 -.00264437  37040-4 -41830-3 0  9998
2 68275  53.1598 256.7965 0000659 222.6256 137.4725 16.02909910  2239
STARLINK-37125          
1 68276U 26055Q   26084.88153773 -.00260779  36402-4 -40821-3 0  9999
2 68276  53.1598 256.7942 0000481 221.0168 139.0828 16.03082324  2237
STARLINK-36989          
1 68277U 26055R   26084.81817899 -.00265582  37526-4 -40188-3 0  9990
2 68277  53.1600 257.1099 0001076 172.9083 187.1965 16.03651291  2221
STARLINK-36982          
1 68278U 26055S   26084.88083564 -.00270869  38460-4 -41694-3 0  9997
2 68278  53.1599 256.7895 0000759  47.6072 312.5024 16.03372326  2231
STARLINK-36934          
1 68279U 26055T   26084.88114930 -.00275378  39310-4 -42708-3 0  9992
2 68279  53.1597 256.7916 0000573 226.3510 133.7475 16.03250608  2232
STARLINK-37070          
1 68280U 26055U   26084.81779901 -.00302797  45306-4 -45485-3 0  9995
2 68280  53.1599 257.1072 0000991 177.7180 182.3857 16.03802782  2229
STARLINK-37134          
1 68281U 26055V   26084.87943108 -.00314174  47947-4 -46674-3 0  9990
2 68281  53.1596 256.7799 0002130 228.1722 131.9129 16.03990365  2236
