CCSDS_OMM_VERS = 2.0
CREATION_DATE  = 
ORIGINATOR     = 

OBJECT_NAME    = STARLINK-37028
OBJECT_ID      = 2026-055J
CENTER_NAME    = EARTH
REF_FRAME      = TEME
TIME_SYSTEM    = UTC
MEAN_ELEMENT_THEORY = SGP/SGP4

EPOCH          = 2026-03-25T21:11:54.672288
MEAN_MOTION    = 16.02355378
ECCENTRICITY   = .00007153
INCLINATION    = 53.1598
RA_OF_ASC_NODE = 256.8055
ARG_OF_PERICENTER = 217.4703
MEAN_ANOMALY   = 142.6279

EPHEMERIS_TYPE = 0
CLASSIFICATION_TYPE = U
NORAD_CAT_ID   = 68270
ELEMENT_SET_NO = 999
REV_AT_EPOCH   = 223
BSTAR          = -.36548144E-3
MEAN_MOTION_DOT = -.224145E-2
MEAN_MOTION_DDOT = .29719222E-4

CCSDS_OMM_VERS = 2.0
CREATION_DATE  = 
ORIGINATOR     = 

OBJECT_NAME    = STARLINK-37029
OBJECT_ID      = 2026-055K
CENTER_NAME    = EARTH
REF_FRAME      = TEME
TIME_SYSTEM    = UTC
MEAN_ELEMENT_THEORY = SGP/SGP4

EPOCH          = 2026-03-25T21:12:24.462144
MEAN_MOTION    = 16.02208294
ECCENTRICITY   = .00002798
INCLINATION    = 53.1599
RA_OF_ASC_NODE = 256.8083
ARG_OF_PERICENTER = 10.0209
MEAN_ANOMALY   = 350.0828

EPHEMERIS_TYPE = 0
CLASSIFICATION_TYPE = U
NORAD_CAT_ID   = 68271
ELEMENT_SET_NO = 999
REV_AT_EPOCH   = 223
BSTAR          = -.32911547E-3
MEAN_MOTION_DOT = -.200487E-2
MEAN_MOTION_DDOT = .2602501E-4

CCSDS_OMM_VERS = 2.0
CREATION_DATE  = 
ORIGINATOR     = 

OBJECT_NAME    = STARLINK-36974
OBJECT_ID      = 2026-055L
CENTER_NAME    = EARTH
REF_FRAME      = TEME
TIME_SYSTEM    = UTC
MEAN_ELEMENT_THEORY = SGP/SGP4

EPOCH          = 2026-03-25T21:11:18.586464
MEAN_MOTION    = 16.02521296
ECCENTRICITY   = .00007247
INCLINATION    = 53.1599
RA_OF_ASC_NODE = 256.8030
ARG_OF_PERICENTER = 43.4418
MEAN_ANOMALY   = 316.6671

EPHEMERIS_TYPE = 0
CLASSIFICATION_TYPE = U
NORAD_CAT_ID   = 68272
ELEMENT_SET_NO = 999
REV_AT_EPOCH   = 223
BSTAR          = -.39889956E-3
MEAN_MOTION_DOT = -.246675E-2
MEAN_MOTION_DDOT = .33618639E-4

CCSDS_OMM_VERS = 2.0
CREATION_DATE  = 
ORIGINATOR     = 

OBJECT_NAME    = STARLINK-37019
OBJECT_ID      = 2026-055M
CENTER_NAME    = EARTH
REF_FRAME      = TEME
TIME_SYSTEM    = UTC
MEAN_ELEMENT_THEORY = SGP/SGP4

EPOCH          = 2026-03-25T21:10:52.777920
MEAN_MOTION    = 16.02657994
ECCENTRICITY   = .00008979
INCLINATION    = 53.1597
RA_OF_ASC_NODE = 256.8006
ARG_OF_PERICENTER = 218.2843
MEAN_ANOMALY   = 141.8125

EPHEMERIS_TYPE = 0
CLASSIFICATION_TYPE = U
NORAD_CAT_ID   = 68273
ELEMENT_SET_NO = 999
REV_AT_EPOCH   = 223
BSTAR          = -.39581277E-3
MEAN_MOTION_DOT = -.246762E-2
MEAN_MOTION_DDOT = .33676148E-4

CCSDS_OMM_VERS = 2.0
CREATION_DATE  = 
ORIGINATOR     = 

OBJECT_NAME    = STARLINK-37129
OBJECT_ID      = 2026-055N
CENTER_NAME    = EARTH
REF_FRAME      = TEME
TIME_SYSTEM    = UTC
MEAN_ELEMENT_THEORY = SGP/SGP4

EPOCH          = 2026-03-25T21:10:24.246048
MEAN_MOTION    = 16.02780007
ECCENTRICITY   = .00006728
INCLINATION    = 53.1598
RA_OF_ASC_NODE = 256.7987
ARG_OF_PERICENTER = 30.6822
MEAN_ANOMALY   = 329.4249

EPHEMERIS_TYPE = 0
CLASSIFICATION_TYPE = U
NORAD_CAT_ID   = 68274
ELEMENT_SET_NO = 999
REV_AT_EPOCH   = 223
BSTAR          = -.41644567E-3
MEAN_MOTION_DOT = -.261283E-2
MEAN_MOTION_DDOT = .36393531E-4

CCSDS_OMM_VERS = 2.0
CREATION_DATE  = 
ORIGINATOR     = 

OBJECT_NAME    = STARLINK-37123
OBJECT_ID      = 2026-055P
CENTER_NAME    = EARTH
REF_FRAME      = TEME
TIME_SYSTEM    = UTC
MEAN_ELEMENT_THEORY = SGP/SGP4

EPOCH          = 2026-03-25T21:09:59.637600
MEAN_MOTION    = 16.02909910
ECCENTRICITY   = .00006592
INCLINATION    = 53.1598
RA_OF_ASC_NODE = 256.7965
ARG_OF_PERICENTER = 222.6256
MEAN_ANOMALY   = 137.4725

EPHEMERIS_TYPE = 0
CLASSIFICATION_TYPE = U
NORAD_CAT_ID   = 68275
ELEMENT_SET_NO = 999
REV_AT_EPOCH   = 223
BSTAR          = -.41829969E-3
MEAN_MOTION_DOT = -.264437E-2
MEAN_MOTION_DDOT = .37040056E-4

CCSDS_OMM_VERS = 2.0
CREATION_DATE  = 
ORIGINATOR     = 

OBJECT_NAME    = STARLINK-37125
OBJECT_ID      = 2026-055Q
CENTER_NAME    = EARTH
REF_FRAME      = TEME
TIME_SYSTEM    = UTC
MEAN_ELEMENT_THEORY = SGP/SGP4

EPOCH          = 2026-03-25T21:09:24.859872
MEAN_MOTION    = 16.03082324
ECCENTRICITY   = .0000481
INCLINATION    = 53.1598
RA_OF_ASC_NODE = 256.7942
ARG_OF_PERICENTER = 221.0168
MEAN_ANOMALY   = 139.0828

EPHEMERIS_TYPE = 0
CLASSIFICATION_TYPE = U
NORAD_CAT_ID   = 68276
ELEMENT_SET_NO = 999
REV_AT_EPOCH   = 223
BSTAR          = -.40821458E-3
MEAN_MOTION_DOT = -.260779E-2
MEAN_MOTION_DDOT = .36401721E-4

CCSDS_OMM_VERS = 2.0
CREATION_DATE  = 
ORIGINATOR     = 

OBJECT_NAME    = STARLINK-36989
OBJECT_ID      = 2026-055R
CENTER_NAME    = EARTH
REF_FRAME      = TEME
TIME_SYSTEM    = UTC
MEAN_ELEMENT_THEORY = SGP/SGP4

EPOCH          = 2026-03-25T19:38:10.664736
MEAN_MOTION    = 16.03651291
ECCENTRICITY   = .00010768
INCLINATION    = 53.1600
RA_OF_ASC_NODE = 257.1099
ARG_OF_PERICENTER = 172.9083
MEAN_ANOMALY   = 187.1965

EPHEMERIS_TYPE = 0
CLASSIFICATION_TYPE = U
NORAD_CAT_ID   = 68277
ELEMENT_SET_NO = 999
REV_AT_EPOCH   = 222
BSTAR          = -.40187698E-3
MEAN_MOTION_DOT = -.265582E-2
MEAN_MOTION_DDOT = .37525576E-4

CCSDS_OMM_VERS = 2.0
CREATION_DATE  = 
ORIGINATOR     = 

OBJECT_NAME    = STARLINK-36982
OBJECT_ID      = 2026-055S
CENTER_NAME    = EARTH
REF_FRAME      = TEME
TIME_SYSTEM    = UTC
MEAN_ELEMENT_THEORY = SGP/SGP4

EPOCH          = 2026-03-25T21:08:24.199296
MEAN_MOTION    = 16.03372326
ECCENTRICITY   = .00007598
INCLINATION    = 53.1599
RA_OF_ASC_NODE = 256.7895
ARG_OF_PERICENTER = 47.6072
MEAN_ANOMALY   = 312.5024

EPHEMERIS_TYPE = 0
CLASSIFICATION_TYPE = U
NORAD_CAT_ID   = 68278
ELEMENT_SET_NO = 999
REV_AT_EPOCH   = 223
BSTAR          = -.41693607E-3
MEAN_MOTION_DOT = -.270869E-2
MEAN_MOTION_DDOT = .38459528E-4

CCSDS_OMM_VERS = 2.0
CREATION_DATE  = 
ORIGINATOR     = 

OBJECT_NAME    = STARLINK-36934
OBJECT_ID      = 2026-055T
CENTER_NAME    = EARTH
REF_FRAME      = TEME
TIME_SYSTEM    = UTC
MEAN_ELEMENT_THEORY = SGP/SGP4

EPOCH          = 2026-03-25T21:08:51.299520
MEAN_MOTION    = 16.03250608
ECCENTRICITY   = .00005731
INCLINATION    = 53.1597
RA_OF_ASC_NODE = 256.7916
ARG_OF_PERICENTER = 226.3510
MEAN_ANOMALY   = 133.7475

EPHEMERIS_TYPE = 0
CLASSIFICATION_TYPE = U
NORAD_CAT_ID   = 68279
ELEMENT_SET_NO = 999
REV_AT_EPOCH   = 223
BSTAR          = -.42708485E-3
MEAN_MOTION_DOT = -.275378E-2
MEAN_MOTION_DDOT = .39310114E-4

CCSDS_OMM_VERS = 2.0
CREATION_DATE  = 
ORIGINATOR     = 

OBJECT_NAME    = STARLINK-37070
OBJECT_ID      = 2026-055U
CENTER_NAME    = EARTH
REF_FRAME      = TEME
TIME_SYSTEM    = UTC
MEAN_ELEMENT_THEORY = SGP/SGP4

EPOCH          = 2026-03-25T19:37:37.834464
MEAN_MOTION    = 16.03802782
ECCENTRICITY   = .00009915
INCLINATION    = 53.1599
RA_OF_ASC_NODE = 257.1072
ARG_OF_PERICENTER = 177.7180
MEAN_ANOMALY   = 182.3857

EPHEMERIS_TYPE = 0
CLASSIFICATION_TYPE = U
NORAD_CAT_ID   = 68280
ELEMENT_SET_NO = 999
REV_AT_EPOCH   = 222
BSTAR          = -.4548547E-3
MEAN_MOTION_DOT = -.302797E-2
MEAN_MOTION_DDOT = .45306318E-4

CCSDS_OMM_VERS = 2.0
CREATION_DATE  = 
ORIGINATOR     = 

OBJECT_NAME    = STARLINK-37134
OBJECT_ID      = 2026-055V
CENTER_NAME    = EARTH
REF_FRAME      = TEME
TIME_SYSTEM    = UTC
MEAN_ELEMENT_THEORY = SGP/SGP4

EPOCH          = 2026-03-25T21:06:22.845312
MEAN_MOTION    = 16.03990365
ECCENTRICITY   = .00021304
INCLINATION    = 53.1596
RA_OF_ASC_NODE = 256.7799
ARG_OF_PERICENTER = 228.1722
MEAN_ANOMALY   = 131.9129

EPHEMERIS_TYPE = 0
CLASSIFICATION_TYPE = U
NORAD_CAT_ID   = 68281
ELEMENT_SET_NO = 999
REV_AT_EPOCH   = 223
BSTAR          = -.46674208E-3
MEAN_MOTION_DOT = -.314174E-2
MEAN_MOTION_DDOT = .47947195E-4

